OBJECT_NAME,OBJECT_ID,EPOCH,MEAN_MOTION,ECCENTRICITY,INCLINATION,RA_OF_ASC_NODE,ARG_OF_PERICENTER,MEAN_ANOMALY,EPHEMERIS_TYPE,CLASSIFICATION_TYPE,NORAD_CAT_ID,ELEMENT_SET_NO,REV_AT_EPOCH,BSTAR,MEAN_MOTION_DOT,MEAN_MOTION_DDOT
SAUDISAT 5A,2018-102A,2026-07-18T20:33:09.623232,15.28341706,.0010097,97.3046,260.8301,31.9494,328.2357,0,U,43831,999,42051,.99496E-4,.2676E-4,0
SAUDISAT 5B,2018-102C,2026-07-18T20:52:52.300992,15.28583797,.001087,97.3155,263.9707,33.2247,326.9673,0,U,43833,999,42063,.93659E-4,.2534E-4,0
GAOFEN-10R,2019-066A,2026-07-18T20:45:06.327648,14.83061312,.0006674,98.0510,153.6771,43.0899,317.0836,0,U,44622,999,36707,.67974E-4,.498E-5,0
CARTOSAT-3,2019-081A,2026-07-18T20:06:20.846592,15.19198802,.0012664,97.4283,261.1921,47.3755,312.8545,0,U,44804,999,36827,.10268E-3,.2096E-4,0
GAOFEN-12 01,2019-082A,2026-07-18T20:17:54.370752,14.80481021,.0000794,97.8111,205.3911,60.5603,299.5689,0,U,44819,999,35877,.241E-4,.134E-5,0
CSG-1,2019-092A,2026-07-18T20:22:18.257088,14.82158344,.000145,97.8898,22.9943,95.2317,264.9061,0,U,44873,999,35616,.21647E-4,.12E-5,0
NEMO-HD,2020-061F,2026-07-18T20:49:27.711840,15.45185239,.0001018,97.1895,261.5108,107.4794,252.6567,0,U,46277,999,32687,.13659E-3,.6392E-4,0
SENTINEL-6A,2020-086A,2026-07-18T18:49:24.557664,12.80930243,.0007777,66.0412,69.4257,269.6689,90.3435,0,U,46984,999,26437,.27119E-4,-.55E-6,0
CAS500-1,2021-022A,2026-07-18T20:33:10.012032,15.20153504,.0005571,97.3856,94.4621,158.8904,201.2562,0,U,47932,999,29557,.13778E-3,.2914E-4,0
GAOFEN-12 02,2021-026A,2026-07-18T20:38:44.558016,14.80317496,.000602,97.9937,197.9138,122.6601,237.5193,0,U,48079,999,28644,.26326E-4,.148E-5,0
PLEIADES NEO 3,2021-034A,2026-07-18T20:36:00.987264,14.81672270,.0001397,97.8938,274.1695,94.6005,265.5367,0,U,48268,999,28234,.53399E-4,.368E-5,0
PLEIADES NEO 4,2021-073E,2026-07-18T11:41:08.462400,14.81674771,.00013179,97.8937,273.7994,95.2302,264.9061,0,U,49070,999,26600,.53928827E-4,.372E-5,0
LANDSAT 9,2021-088A,2026-07-18T18:49:58.662336,14.57096977,.0001092,98.2267,269.5772,91.0107,269.1216,0,U,49260,999,25560,.42939E-4,.148E-5,0
CSG-2,2022-008A,2026-07-18T19:33:38.732832,14.82177853,.000165,97.8894,22.9547,89.9663,270.1740,0,U,51444,999,24127,.11617E-3,.873E-5,0
GAOFEN-12 03,2022-069A,2026-07-18T19:52:14.321856,14.80077312,.0002366,97.8233,86.8948,68.1851,291.9613,0,U,52912,999,21929,.70196E-6,-.45E-6,0
SWOT,2022-173A,2026-07-18T20:33:50.016960,14.00172489,.0000234,77.6115,352.5548,66.3041,293.8136,0,U,54754,999,18358,-.23562E-4,-.37E-6,0
GAOFEN-12 04,2023-123A,2026-07-18T20:21:39.497184,14.79778902,.0003326,97.9098,117.3920,42.6829,317.4640,0,U,57654,999,15731,.63004E-4,.422E-5,0
PARS 1,2024-039Q,2026-07-18T21:35:04.565760,15.46338439,.0009306,97.4846,181.8366,14.6132,345.5384,0,U,59065,999,13354,.1327E-3,.6462E-4,0
RESURS-P 4,2024-061A,2026-07-18T20:55:26.056704,15.32292631,.0003212,97.2760,147.2244,83.9793,276.1815,0,U,59371,999,12861,.53782E-4,.1601E-4,0
LEGION 1,2024-081A,2026-07-18T19:51:20.918016,15.16857137,.0007788,97.5009,277.3489,254.5971,105.4402,0,U,59625,999,12233,.91067E-4,.1725E-4,0
LEGION 2,2024-081B,2026-07-18T19:00:11.128608,15.16836442,.0010491,97.5009,277.4104,219.7129,140.3337,0,U,59626,999,12233,.96018E-4,.1823E-4,0
ALOS-4 (DAICHI-4),2024-123A,2026-07-18T19:27:24.380640,14.79475146,.0001545,97.9221,296.5327,97.8143,262.3244,0,U,60182,999,11055,.88253E-4,.608E-5,0
LEGION 3,2024-146A,2026-07-18T18:19:54.785856,15.15666173,.0007863,45.0015,221.2602,353.4810,6.5965,0,U,60452,999,10681,.68495E-4,.1061E-4,0
LEGION 4,2024-146B,2026-07-18T16:44:32.310816,15.15694463,.0009147,45.0024,313.4828,135.3401,224.8216,0,U,60453,999,10565,.95797E-4,.1591E-4,0
SENTINEL-2C,2024-157A,2026-07-18T18:44:34.478304,14.30816271,.0001022,98.5682,274.1142,105.5193,254.6103,0,U,60989,999,9750,.30437E-4,.36E-6,0
IONOSFERA-M 1,2024-199A,2026-07-18T20:10:10.275744,14.22759657,.0002109,98.7130,72.6723,67.7863,292.3539,0,U,61735,999,13220,.26999E-4,.17E-6,0
IONOSFERA-M 2,2024-199B,2026-07-18T19:18:10.807200,14.22762914,.0000634,98.7129,72.5469,129.5248,230.5986,0,U,61736,999,13532,.20557E-4,.2E-7,0
PRSC-EO1,2025-012A,2026-07-18T20:08:43.164672,15.17645982,.0007019,97.4210,271.6782,136.1490,224.0302,0,U,62725,999,8299,.15691E-3,.3093E-4,0
BIOMASS,2025-090A,2026-07-18T19:25:10.437312,14.67534427,.0001446,98.0750,26.6638,91.7334,268.4036,0,U,63772,999,6532,.46686E-4,.217E-5,0
GOSAT-GW (IBUKI GW),2025-141A,2026-07-18T19:49:56.328096,14.67554309,.0001363,98.0564,136.6294,84.5874,275.5486,0,U,64694,999,5648,-.11496E-4,-.113E-5,0
IONOSFERA-M 3,2025-155A,2026-07-18T20:24:26.707968,14.21491177,.0002376,98.6043,160.9615,107.0070,253.1368,0,U,64876,999,5090,.26133E-4,.14E-6,0
