SAUDISAT 5A             
1 43831U 18102A   26199.85636138  .00002676  00000+0  99496-4 0  9999
2 43831  97.3046 260.8301 0010097  31.9494 328.2357 15.28341706420516
SAUDISAT 5B             
1 43833U 18102C   26199.87004978  .00002534  00000+0  93659-4 0  9992
2 43833  97.3155 263.9707 0010870  33.2247 326.9673 15.28583797420630
GAOFEN-10R              
1 44622U 19066A   26199.86465657  .00000498  00000+0  67974-4 0  9991
2 44622  98.0510 153.6771 0006674  43.0899 317.0836 14.83061312367079
CARTOSAT-3              
1 44804U 19081A   26199.83774128  .00002096  00000+0  10268-3 0  9992
2 44804  97.4283 261.1921 0012664  47.3755 312.8545 15.19198802368275
GAOFEN-12 01            
1 44819U 19082A   26199.84576818  .00000134  00000+0  24100-4 0  9998
2 44819  97.8111 205.3911 0000794  60.5603 299.5689 14.80481021358773
CSG-1                   
1 44873U 19092A   26199.84882242  .00000120  00000+0  21647-4 0  9998
2 44873  97.8898  22.9943 0001450  95.2317 264.9061 14.82158344356162
NEMO-HD                 
1 46277U 20061F   26199.86768185  .00006392  00000+0  13659-3 0  9997
2 46277  97.1895 261.5108 0001018 107.4794 252.6567 15.45185239326874
SENTINEL-6A             
1 46984U 20086A   26199.78431201 -.00000055  00000+0  27119-4 0  9994
2 46984  66.0412  69.4257 0007777 269.6689  90.3435 12.80930243264377
CAS500-1                
1 47932U 21022A   26199.85636588  .00002914  00000+0  13778-3 0  9992
2 47932  97.3856  94.4621 0005571 158.8904 201.2562 15.20153504295576
GAOFEN-12 02            
1 48079U 21026A   26199.86023794  .00000148  00000+0  26326-4 0  9990
2 48079  97.9937 197.9138 0006020 122.6601 237.5193 14.80317496286445
PLEIADES NEO 3          
1 48268U 21034A   26199.85834476  .00000368  00000+0  53399-4 0  9999
2 48268  97.8938 274.1695 0001397  94.6005 265.5367 14.81672270282343
PLEIADES NEO 4          
1 49070U 21073E   26199.48690350  .00000372  00000+0  53929-4 0  9998
2 49070  97.8937 273.7994 0001317  95.2302 264.9061 14.81674771266007
LANDSAT 9               
1 49260U 21088A   26199.78470674  .00000148  00000+0  42939-4 0  9993
2 49260  98.2267 269.5772 0001092  91.0107 269.1216 14.57096977255605
CSG-2                   
1 51444U 22008A   26199.81503163  .00000873  00000+0  11617-3 0  9990
2 51444  97.8894  22.9547 0001650  89.9663 270.1740 14.82177853241270
GAOFEN-12 03            
1 52912U 22069A   26199.82794354 -.00000045  00000+0  70196-6 0  9995
2 52912  97.8233  86.8948 0002366  68.1851 291.9613 14.80077312219299
SWOT                    
1 54754U 22173A   26199.85682890 -.00000037  00000+0 -23562-4 0  9996
2 54754  77.6115 352.5548 0000234  66.3041 293.8136 14.00172489183588
GAOFEN-12 04            
1 57654U 23123A   26199.84837381  .00000422  00000+0  63004-4 0  9991
2 57654  97.9098 117.3920 0003326  42.6829 317.4640 14.79778902157315
PARS 1                  
1 59065U 24039Q   26199.89935840  .00006462  00000+0  13270-3 0  9999
2 59065  97.4846 181.8366 0009306  14.6132 345.5384 15.46338439133547
RESURS-P 4              
1 59371U 24061A   26199.87182936  .00001601  00000+0  53782-4 0  9995
2 59371  97.2760 147.2244 0003212  83.9793 276.1815 15.32292631128611
LEGION 1                
1 59625U 24081A   26199.82732544  .00001725  00000+0  91067-4 0  9995
2 59625  97.5009 277.3489 0007788 254.5971 105.4402 15.16857137122333
LEGION 2                
1 59626U 24081B   26199.79179547  .00001823  00000+0  96018-4 0  9990
2 59626  97.5009 277.4104 0010491 219.7129 140.3337 15.16836442122333
ALOS-4 (DAICHI-4)       
1 60182U 24123A   26199.81069885  .00000608  00000+0  88253-4 0  9994
2 60182  97.9221 296.5327 0001545  97.8143 262.3244 14.79475146110553
LEGION 3                
1 60452U 24146A   26199.76382854  .00001061  00000+0  68495-4 0  9997
2 60452  45.0015 221.2602 0007863 353.4810   6.5965 15.15666173106815
LEGION 4                
1 60453U 24146B   26199.69759619  .00001591  00000+0  95797-4 0  9990
2 60453  45.0024 313.4828 0009147 135.3401 224.8216 15.15694463105658
SENTINEL-2C             
1 60989U 24157A   26199.78095461  .00000036  00000+0  30437-4 0  9997
2 60989  98.5682 274.1142 0001022 105.5193 254.6103 14.30816271 97507
IONOSFERA-M 1           
1 61735U 24199A   26199.84039671  .00000017  00000+0  26999-4 0  9998
2 61735  98.7130  72.6723 0002109  67.7863 292.3539 14.22759657132207
IONOSFERA-M 2           
1 61736U 24199B   26199.80429175  .00000002  00000+0  20557-4 0  9995
2 61736  98.7129  72.5469 0000634 129.5248 230.5986 14.22762914135323
PRSC-EO1                
1 62725U 25012A   26199.83938848  .00003093  00000+0  15691-3 0  9999
2 62725  97.4210 271.6782 0007019 136.1490 224.0302 15.17645982 82990
BIOMASS                 
1 63772U 25090A   26199.80914858  .00000217  00000+0  46686-4 0  9994
2 63772  98.0750  26.6638 0001446  91.7334 268.4036 14.67534427 65327
GOSAT-GW (IBUKI GW)     
1 64694U 25141A   26199.82634639 -.00000113  00000+0 -11496-4 0  9991
2 64694  98.0564 136.6294 0001363  84.5874 275.5486 14.67554309 56487
IONOSFERA-M 3           
1 64876U 25155A   26199.85030912  .00000014  00000+0  26133-4 0  9997
2 64876  98.6043 160.9615 0002376 107.0070 253.1368 14.21491177 50903
